O3B MPOWER F1           
1 54755U 22174A   24094.22913490 -.00000017  00000+0  00000+0 0  9998
2 54755   0.0655   4.6549 0006604  15.3494  63.8960  5.00114784 25092
